XRISM                   
1 57800U 23137A   24261.01204086  .00010826  00000+0  78277-3 0  9992
2 57800  31.0031 147.5070 0009356  34.0242 326.0992 15.02798243 56421
